{"epoch":1784762836,"count":18316,"objects":[{"id":"27607","name":"SAUDISAT 1C","type":"PAYLOAD","l1":"1 27607U 02058C   26203.48903566  .00000746  00000-0  10552-3 0  9994","l2":"2 27607  64.5523  19.7554 0074298 255.9504 103.3336 14.83108843269691"},{"id":"28371","name":"SAUDISAT 2","type":"PAYLOAD","l1":"1 28371U 04025F   26203.47245355  .00000177  00000-0  50668-4 0  9994","l2":"2 28371  98.5525 204.3692 0024534 185.5038 174.5894 14.56701025170884"},{"id":"31118","name":"SAUDISAT 3","type":"PAYLOAD","l1":"1 31118U 07012B   26202.80360035  .00000183  00000-0  37680-4 0  9991","l2":"2 31118  98.1470 153.2305 0015883 115.1779 245.1077 14.71442858 32836"},{"id":"41784","name":"PISAT","type":"PAYLOAD","l1":"1 41784U 16059B   26203.42719677  .00000781  00000-0  14023-3 0  9990","l2":"2 41784  97.8195 202.3689 0030585  92.8219 267.6488 14.69039095524915"},{"id":"42831","name":"FLYING LAPTOP","type":"PAYLOAD","l1":"1 42831U 17042G   26203.64479726  .00002663  00000-0  21046-3 0  9993","l2":"2 42831  97.4845 357.8522 0019245   8.7660 351.3897 15.01345106491777"},{"id":"46495","name":"SALSAT","type":"PAYLOAD","l1":"1 46495U 20068K   26203.46128258  .00007239  00000-0  24997-3 0  9998","l2":"2 46495  97.8868 208.6876 0009978 167.8214 192.3268 15.30243913320754"}]}